ORBCOMM FM33            
1 25983U 99065D   25103.91580202  .00002044  00000+0  69002-3 0  9993
2 25983  45.0283 304.4920 0008739 100.0995 260.0841 14.39820237326803
ORBCOMM FM36            
1 25984U 99065E   25103.86574707  .00002546  00000+0  88188-3 0  9994
2 25984  45.0400  35.6730 0004656 336.8934  23.1705 14.37923003325161
ORBCOMM FM35            
1 25985U 99065F   25104.21700750  .00002344  00000+0  83224-3 0  9996
2 25985  45.0400  38.5408 0003430  50.0937 310.0212 14.36920376325770
ORBCOMM FM34            
1 25986U 99065G   25103.90625305  .00002064  00000+0  73772-3 0  9990
2 25986  45.0394  40.4968 0004886   6.1371 353.9537 14.36957322325650
ORBCOMM FM38            
1 33060U 08031A   25103.78911501  .00004442  00000+0  59423-3 0  9996
2 33060  48.4391 262.0804 0004753 128.5031 231.6311 14.80995090905202
ORBCOMM FM41            
1 33061U 08031B   25104.21128645  .00004271  00000+0  57770-3 0  9998
2 33061  48.4426 267.6302 0003876 114.4276  55.6546 14.80600857905192
ORBCOMM FM29            
1 33062U 08031C   25103.76545986  .00004502  00000+0  60641-3 0  9997
2 33062  48.4379 277.6377 0005617 109.7011 263.8440 14.80676473904600
ORBCOMM FM39            
1 33063U 08031D   25103.86655739  .00003448  00000+0  48665-3 0  9997
2 33063  48.4396 300.7325 0006508  80.2426 279.9224 14.79271133904277
