<?xml version="1.0" encoding="UTF-8"?>
<ndm xmlns:xsi="http://www.w3.org/2001/XMLSchema-instance" xsi:noNamespaceSchemaLocation="https://sanaregistry.org/r/ndmxml_unqualified/ndmxml-2.0.0-master-2.0.xsd">
<omm id="CCSDS_OMM_VERS" version="2.0">
<header><CREATION_DATE/><ORIGINATOR/></header><body><segment><metadata><OBJECT_NAME>ORBCOMM FM33</OBJECT_NAME><OBJECT_ID>1999-065D</OBJECT_ID><CENTER_NAME>EARTH</CENTER_NAME><REF_FRAME>TEME</REF_FRAME><TIME_SYSTEM>UTC</TIME_SYSTEM><MEAN_ELEMENT_THEORY>SGP4</MEAN_ELEMENT_THEORY></metadata><data><meanElements><EPOCH>2025-04-13T21:58:45.294528</EPOCH><MEAN_MOTION>14.39820237</MEAN_MOTION><ECCENTRICITY>.0008739</ECCENTRICITY><INCLINATION>45.0283</INCLINATION><RA_OF_ASC_NODE>304.4920</RA_OF_ASC_NODE><ARG_OF_PERICENTER>100.0995</ARG_OF_PERICENTER><MEAN_ANOMALY>260.0841</MEAN_ANOMALY></meanElements><tleParameters><EPHEMERIS_TYPE>0</EPHEMERIS_TYPE><CLASSIFICATION_TYPE>U</CLASSIFICATION_TYPE><NORAD_CAT_ID>25983</NORAD_CAT_ID><ELEMENT_SET_NO>999</ELEMENT_SET_NO><REV_AT_EPOCH>32680</REV_AT_EPOCH><BSTAR>.69002E-3</BSTAR><MEAN_MOTION_DOT>.2044E-4</MEAN_MOTION_DOT><MEAN_MOTION_DDOT>0</MEAN_MOTION_DDOT></tleParameters></data></segment></body></omm>
<omm id="CCSDS_OMM_VERS" version="2.0">
<header><CREATION_DATE/><ORIGINATOR/></header><body><segment><metadata><OBJECT_NAME>ORBCOMM FM36</OBJECT_NAME><OBJECT_ID>1999-065E</OBJECT_ID><CENTER_NAME>EARTH</CENTER_NAME><REF_FRAME>TEME</REF_FRAME><TIME_SYSTEM>UTC</TIME_SYSTEM><MEAN_ELEMENT_THEORY>SGP4</MEAN_ELEMENT_THEORY></metadata><data><meanElements><EPOCH>2025-04-13T20:46:40.546848</EPOCH><MEAN_MOTION>14.37923003</MEAN_MOTION><ECCENTRICITY>.0004656</ECCENTRICITY><INCLINATION>45.0400</INCLINATION><RA_OF_ASC_NODE>35.6730</RA_OF_ASC_NODE><ARG_OF_PERICENTER>336.8934</ARG_OF_PERICENTER><MEAN_ANOMALY>23.1705</MEAN_ANOMALY></meanElements><tleParameters><EPHEMERIS_TYPE>0</EPHEMERIS_TYPE><CLASSIFICATION_TYPE>U</CLASSIFICATION_TYPE><NORAD_CAT_ID>25984</NORAD_CAT_ID><ELEMENT_SET_NO>999</ELEMENT_SET_NO><REV_AT_EPOCH>32516</REV_AT_EPOCH><BSTAR>.88188E-3</BSTAR><MEAN_MOTION_DOT>.2546E-4</MEAN_MOTION_DOT><MEAN_MOTION_DDOT>0</MEAN_MOTION_DDOT></tleParameters></data></segment></body></omm>
<omm id="CCSDS_OMM_VERS" version="2.0">
<header><CREATION_DATE/><ORIGINATOR/></header><body><segment><metadata><OBJECT_NAME>ORBCOMM FM35</OBJECT_NAME><OBJECT_ID>1999-065F</OBJECT_ID><CENTER_NAME>EARTH</CENTER_NAME><REF_FRAME>TEME</REF_FRAME><TIME_SYSTEM>UTC</TIME_SYSTEM><MEAN_ELEMENT_THEORY>SGP4</MEAN_ELEMENT_THEORY></metadata><data><meanElements><EPOCH>2025-04-14T05:12:29.448000</EPOCH><MEAN_MOTION>14.36920376</MEAN_MOTION><ECCENTRICITY>.000343</ECCENTRICITY><INCLINATION>45.0400</INCLINATION><RA_OF_ASC_NODE>38.5408</RA_OF_ASC_NODE><ARG_OF_PERICENTER>50.0937</ARG_OF_PERICENTER><MEAN_ANOMALY>310.0212</MEAN_ANOMALY></meanElements><tleParameters><EPHEMERIS_TYPE>0</EPHEMERIS_TYPE><CLASSIFICATION_TYPE>U</CLASSIFICATION_TYPE><NORAD_CAT_ID>25985</NORAD_CAT_ID><ELEMENT_SET_NO>999</ELEMENT_SET_NO><REV_AT_EPOCH>32577</REV_AT_EPOCH><BSTAR>.83224E-3</BSTAR><MEAN_MOTION_DOT>.2344E-4</MEAN_MOTION_DOT><MEAN_MOTION_DDOT>0</MEAN_MOTION_DDOT></tleParameters></data></segment></body></omm>
<omm id="CCSDS_OMM_VERS" version="2.0">
<header><CREATION_DATE/><ORIGINATOR/></header><body><segment><metadata><OBJECT_NAME>ORBCOMM FM34</OBJECT_NAME><OBJECT_ID>1999-065G</OBJECT_ID><CENTER_NAME>EARTH</CENTER_NAME><REF_FRAME>TEME</REF_FRAME><TIME_SYSTEM>UTC</TIME_SYSTEM><MEAN_ELEMENT_THEORY>SGP4</MEAN_ELEMENT_THEORY></metadata><data><meanElements><EPOCH>2025-04-13T21:45:00.263520</EPOCH><MEAN_MOTION>14.36957322</MEAN_MOTION><ECCENTRICITY>.0004886</ECCENTRICITY><INCLINATION>45.0394</INCLINATION><RA_OF_ASC_NODE>40.4968</RA_OF_ASC_NODE><ARG_OF_PERICENTER>6.1371</ARG_OF_PERICENTER><MEAN_ANOMALY>353.9537</MEAN_ANOMALY></meanElements><tleParameters><EPHEMERIS_TYPE>0</EPHEMERIS_TYPE><CLASSIFICATION_TYPE>U</CLASSIFICATION_TYPE><NORAD_CAT_ID>25986</NORAD_CAT_ID><ELEMENT_SET_NO>999</ELEMENT_SET_NO><REV_AT_EPOCH>32565</REV_AT_EPOCH><BSTAR>.73772E-3</BSTAR><MEAN_MOTION_DOT>.2064E-4</MEAN_MOTION_DOT><MEAN_MOTION_DDOT>0</MEAN_MOTION_DDOT></tleParameters></data></segment></body></omm>
<omm id="CCSDS_OMM_VERS" version="2.0">
<header><CREATION_DATE/><ORIGINATOR/></header><body><segment><metadata><OBJECT_NAME>ORBCOMM FM38</OBJECT_NAME><OBJECT_ID>2008-031A</OBJECT_ID><CENTER_NAME>EARTH</CENTER_NAME><REF_FRAME>TEME</REF_FRAME><TIME_SYSTEM>UTC</TIME_SYSTEM><MEAN_ELEMENT_THEORY>SGP4</MEAN_ELEMENT_THEORY></metadata><data><meanElements><EPOCH>2025-04-13T18:56:19.536864</EPOCH><MEAN_MOTION>14.80995090</MEAN_MOTION><ECCENTRICITY>.0004753</ECCENTRICITY><INCLINATION>48.4391</INCLINATION><RA_OF_ASC_NODE>262.0804</RA_OF_ASC_NODE><ARG_OF_PERICENTER>128.5031</ARG_OF_PERICENTER><MEAN_ANOMALY>231.6311</MEAN_ANOMALY></meanElements><tleParameters><EPHEMERIS_TYPE>0</EPHEMERIS_TYPE><CLASSIFICATION_TYPE>U</CLASSIFICATION_TYPE><NORAD_CAT_ID>33060</NORAD_CAT_ID><ELEMENT_SET_NO>999</ELEMENT_SET_NO><REV_AT_EPOCH>90520</REV_AT_EPOCH><BSTAR>.59423E-3</BSTAR><MEAN_MOTION_DOT>.4442E-4</MEAN_MOTION_DOT><MEAN_MOTION_DDOT>0</MEAN_MOTION_DDOT></tleParameters></data></segment></body></omm>
<omm id="CCSDS_OMM_VERS" version="2.0">
<header><CREATION_DATE/><ORIGINATOR/></header><body><segment><metadata><OBJECT_NAME>ORBCOMM FM41</OBJECT_NAME><OBJECT_ID>2008-031B</OBJECT_ID><CENTER_NAME>EARTH</CENTER_NAME><REF_FRAME>TEME</REF_FRAME><TIME_SYSTEM>UTC</TIME_SYSTEM><MEAN_ELEMENT_THEORY>SGP4</MEAN_ELEMENT_THEORY></metadata><data><meanElements><EPOCH>2025-04-14T05:04:15.149280</EPOCH><MEAN_MOTION>14.80600857</MEAN_MOTION><ECCENTRICITY>.0003876</ECCENTRICITY><INCLINATION>48.4426</INCLINATION><RA_OF_ASC_NODE>267.6302</RA_OF_ASC_NODE><ARG_OF_PERICENTER>114.4276</ARG_OF_PERICENTER><MEAN_ANOMALY>55.6546</MEAN_ANOMALY></meanElements><tleParameters><EPHEMERIS_TYPE>0</EPHEMERIS_TYPE><CLASSIFICATION_TYPE>U</CLASSIFICATION_TYPE><NORAD_CAT_ID>33061</NORAD_CAT_ID><ELEMENT_SET_NO>999</ELEMENT_SET_NO><REV_AT_EPOCH>90519</REV_AT_EPOCH><BSTAR>.5777E-3</BSTAR><MEAN_MOTION_DOT>.4271E-4</MEAN_MOTION_DOT><MEAN_MOTION_DDOT>0</MEAN_MOTION_DDOT></tleParameters></data></segment></body></omm>
<omm id="CCSDS_OMM_VERS" version="2.0">
<header><CREATION_DATE/><ORIGINATOR/></header><body><segment><metadata><OBJECT_NAME>ORBCOMM FM29</OBJECT_NAME><OBJECT_ID>2008-031C</OBJECT_ID><CENTER_NAME>EARTH</CENTER_NAME><REF_FRAME>TEME</REF_FRAME><TIME_SYSTEM>UTC</TIME_SYSTEM><MEAN_ELEMENT_THEORY>SGP4</MEAN_ELEMENT_THEORY></metadata><data><meanElements><EPOCH>2025-04-13T18:22:15.731904</EPOCH><MEAN_MOTION>14.80676473</MEAN_MOTION><ECCENTRICITY>.0005617</ECCENTRICITY><INCLINATION>48.4379</INCLINATION><RA_OF_ASC_NODE>277.6377</RA_OF_ASC_NODE><ARG_OF_PERICENTER>109.7011</ARG_OF_PERICENTER><MEAN_ANOMALY>263.8440</MEAN_ANOMALY></meanElements><tleParameters><EPHEMERIS_TYPE>0</EPHEMERIS_TYPE><CLASSIFICATION_TYPE>U</CLASSIFICATION_TYPE><NORAD_CAT_ID>33062</NORAD_CAT_ID><ELEMENT_SET_NO>999</ELEMENT_SET_NO><REV_AT_EPOCH>90460</REV_AT_EPOCH><BSTAR>.60641E-3</BSTAR><MEAN_MOTION_DOT>.4502E-4</MEAN_MOTION_DOT><MEAN_MOTION_DDOT>0</MEAN_MOTION_DDOT></tleParameters></data></segment></body></omm>
<omm id="CCSDS_OMM_VERS" version="2.0">
<header><CREATION_DATE/><ORIGINATOR/></header><body><segment><metadata><OBJECT_NAME>ORBCOMM FM39</OBJECT_NAME><OBJECT_ID>2008-031D</OBJECT_ID><CENTER_NAME>EARTH</CENTER_NAME><REF_FRAME>TEME</REF_FRAME><TIME_SYSTEM>UTC</TIME_SYSTEM><MEAN_ELEMENT_THEORY>SGP4</MEAN_ELEMENT_THEORY></metadata><data><meanElements><EPOCH>2025-04-13T20:47:50.558496</EPOCH><MEAN_MOTION>14.79271133</MEAN_MOTION><ECCENTRICITY>.0006508</ECCENTRICITY><INCLINATION>48.4396</INCLINATION><RA_OF_ASC_NODE>300.7325</RA_OF_ASC_NODE><ARG_OF_PERICENTER>80.2426</ARG_OF_PERICENTER><MEAN_ANOMALY>279.9224</MEAN_ANOMALY></meanElements><tleParameters><EPHEMERIS_TYPE>0</EPHEMERIS_TYPE><CLASSIFICATION_TYPE>U</CLASSIFICATION_TYPE><NORAD_CAT_ID>33063</NORAD_CAT_ID><ELEMENT_SET_NO>999</ELEMENT_SET_NO><REV_AT_EPOCH>90427</REV_AT_EPOCH><BSTAR>.48665E-3</BSTAR><MEAN_MOTION_DOT>.3448E-4</MEAN_MOTION_DOT><MEAN_MOTION_DDOT>0</MEAN_MOTION_DDOT></tleParameters></data></segment></body></omm>

</ndm>
